IRIDIUM 26              
1 24903U 97043A   25356.65433862  .00000326  00000+0  10272-3 0  9994
2 24903  86.3950  31.3950 0002232  98.1162 262.0289 14.37334784483815
IRIDIUM 22              
1 24907U 97043E   25356.81067453  .00000315  00000+0  10138-3 0  9994
2 24907  86.3954  35.0313 0002329  93.9227 266.2237 14.36128195483847
DUMMY MASS 1            
1 24925U 97048A   25356.62940794  .00000369  00000+0  37854-4 0  9990
2 24925  86.3335  48.1295 0006320 176.9192 183.2073 14.87190805533139
DUMMY MASS 2            
1 24926U 97048B   25356.62303876  .00000366  00000+0  37747-4 0  9993
2 24926  86.3334  49.7752 0006542 191.6164 168.4911 14.86941188532900
IRIDIUM 29              
1 24944U 97051A   25356.90430079  .00000361  00000+0  11582-3 0  9997
2 24944  86.3946  64.6756 0002247  90.8317 269.3138 14.36670306480367
IRIDIUM 33              
1 24946U 97051C   25356.18959078  .00000323  00000+0  10633-3 0  9998
2 24946  86.3861  64.2549 0008162 169.1562 190.9812 14.35043647479700
IRIDIUM 28              
1 24948U 97051E   25356.61973603  .00000358  00000+0  11293-3 0  9999
2 24948  86.3951  62.2030 0002257 109.1359 251.0084 14.37570172480917
IRIDIUM 36              
1 24967U 97056C   25356.69290397  .00000392  00000+0  12375-3 0  9995
2 24967  86.3963  93.8000 0002317 100.4690 259.6769 14.37792355479301
